0 DMSP 5D-2 F11 DEB
1 28343U 91082BG  13283.75063719  .00002005  00000-0  11700-2 0  7159
2 28343 098.9504 259.2395 0092535 068.9611 292.1777 14.07474048481600
0 DMSP 5D-2 F11 DEB
1 28343U 91082BG  13285.74109286  .00002084  00000-0  12141-2 0  7168
2 28343 098.9506 261.2143 0092798 063.7749 297.2972 14.07483690481888
0 DMSP 5D-2 F11 DEB
1 28343U 91082BG  13289.15328214  .00002197  00000-0  12782-2 0  7178
2 28343 098.9511 264.5938 0093048 053.8697 307.1271 14.07500666482363
0 DMSP 5D-2 F11 DEB
1 28343U 91082BG  13291.78347143  .00002359  00000-0  13702-2 0  7186
2 28343 098.9513 267.1955 0093176 046.2545 314.6709 14.07516410482737
0 DMSP 5D-2 F11 DEB
1 28343U 91082BG  13293.13408869  .00002489  00000-0  14431-2 0  7195
2 28343 098.9516 268.5324 0094007 042.1556 318.6990 14.07525910482928
0 DMSP 5D-2 F11 DEB
1 28343U 91082BG  13293.77385268  .00002546  00000-0  14756-2 0  7208
2 28343 098.9532 269.1682 0093535 041.1275 319.7081 14.07530130483016
0 DMSP 5D-2 F11 DEB
1 28343U 91082BG  13295.69314174  .00002802  00000-0  16241-2 0  7216
2 28343 098.9568 271.0794 0091618 038.2529 322.6193 14.07545460483288
